start=new Date('2022-11-25T00:00:00.000Z').valueOf();
sats=[{"NORAD_CAT_ID":"52632","MEAN_MOTION_DDOT":"0.0000000000000","REF_FRAME":"TEME","ECCENTRICITY":"0.00024330","OBJECT_NAME":"STARLINK-3995","EPHEMERIS_TYPE":"0","COUNTRY_CODE":"US","EPOCH":"2022-11-24T04:34:29.702784","CENTER_NAME":"EARTH","RCS_SIZE":"LARGE","BSTAR":"0.00003319600000","RA_OF_ASC_NODE":"262.8574","DECAY_DATE":null,"GP_ID":"218666667","PERIAPSIS":"538.074","APOAPSIS":"541.440","SITE":"AFETR","INCLINATION":"53.2189","TLE_LINE2":"2 52632  53.2189 262.8574 0002433  33.6807 326.4340 15.08836175 29615","TIME_SYSTEM":"UTC","MEAN_ELEMENT_THEORY":"SGP4","ARG_OF_PERICENTER":"33.6807","MEAN_ANOMALY":"326.4340","ELEMENT_SET_NO":"999","TLE_LINE1":"1 52632U 22052AL  22328.19062156  .00000240  00000-0  33196-4 0  9998","CLASSIFICATION_TYPE":"U","REV_AT_EPOCH":"2961","SEMIMAJOR_AXIS":"6917.892","MEAN_MOTION_DOT":"0.00000240","FILE":"3669022","MEAN_MOTION":"15.08836175","PERIOD":"95.438","LAUNCH_DATE":"2022-05-14","OBJECT_ID":"2022-052AL","OBJECT_TYPE":"PAYLOAD"},{"NORAD_CAT_ID":"52633","ECCENTRICITY":"0.00021770","MEAN_MOTION_DDOT":"0.0000000000000","REF_FRAME":"TEME","EPHEMERIS_TYPE":"0","COUNTRY_CODE":"US","OBJECT_NAME":"STARLINK-3994","EPOCH":"2022-11-24T05:38:05.164800","RA_OF_ASC_NODE":"262.6612","CENTER_NAME":"EARTH","RCS_SIZE":"LARGE","BSTAR":"-0.00003573900000","GP_ID":"218667418","DECAY_DATE":null,"PERIAPSIS":"538.243","TLE_LINE2":"2 52633  53.2195 262.6612 0002177  39.1323 320.9826 15.08838822 29623","APOAPSIS":"541.255","SITE":"AFETR","INCLINATION":"53.2195","ARG_OF_PERICENTER":"39.1323","MEAN_ANOMALY":"320.9826","TIME_SYSTEM":"UTC","MEAN_ELEMENT_THEORY":"SGP4","ELEMENT_SET_NO":"999","TLE_LINE1":"1 52633U 22052AM  22328.23478200 -.00000857  00000-0 -35739-4 0  9996","CLASSIFICATION_TYPE":"U","REV_AT_EPOCH":"2962","SEMIMAJOR_AXIS":"6917.884","MEAN_MOTION_DOT":"-0.00000857","FILE":"3669022","OBJECT_TYPE":"PAYLOAD","PERIOD":"95.438","MEAN_MOTION":"15.08838822","OBJECT_ID":"2022-052AM","LAUNCH_DATE":"2022-05-14"},{"TLE_LINE2":"2 52634  53.2180 259.9357 0002724  39.5970 320.5220 15.08834191 29701","INCLINATION":"53.2180","SITE":"AFETR","APOAPSIS":"541.648","PERIAPSIS":"537.879","TLE_LINE1":"1 52634U 22052AN  22328.84293858  .00000494  00000-0  49179-4 0  9996","ELEMENT_SET_NO":"999","MEAN_ANOMALY":"320.5220","ARG_OF_PERICENTER":"39.5970","MEAN_ELEMENT_THEORY":"SGP4","TIME_SYSTEM":"UTC","MEAN_MOTION_DOT":"0.00000494","SEMIMAJOR_AXIS":"6917.898","REV_AT_EPOCH":"2970","CLASSIFICATION_TYPE":"U","OBJECT_TYPE":"PAYLOAD","OBJECT_ID":"2022-052AN","LAUNCH_DATE":"2022-05-14","MEAN_MOTION":"15.08834191","PERIOD":"95.438","FILE":"3669335","NORAD_CAT_ID":"52634","COUNTRY_CODE":"US","EPHEMERIS_TYPE":"0","OBJECT_NAME":"STARLINK-3974","ECCENTRICITY":"0.00027240","MEAN_MOTION_DDOT":"0.0000000000000","REF_FRAME":"TEME","RA_OF_ASC_NODE":"259.9357","BSTAR":"0.00004917900000","RCS_SIZE":"LARGE","CENTER_NAME":"EARTH","EPOCH":"2022-11-24T20:13:49.893312","GP_ID":"218724232","DECAY_DATE":null},{"TLE_LINE2":"2 52635  53.2165 250.0569 0002962  25.6519 334.4619 15.08838821 29846","APOAPSIS":"541.798","SITE":"AFETR","INCLINATION":"53.2165","PERIAPSIS":"537.700","ELEMENT_SET_NO":"999","TLE_LINE1":"1 52635U 22052AP  22328.81345518  .00002119  00000-0  15124-3 0  9993","ARG_OF_PERICENTER":"25.6519","MEAN_ANOMALY":"334.4619","TIME_SYSTEM":"UTC","MEAN_ELEMENT_THEORY":"SGP4","MEAN_MOTION_DOT":"0.00002119","REV_AT_EPOCH":"2984","CLASSIFICATION_TYPE":"U","SEMIMAJOR_AXIS":"6917.884","OBJECT_TYPE":"PAYLOAD","PERIOD":"95.438","MEAN_MOTION":"15.08838821","LAUNCH_DATE":"2022-05-14","OBJECT_ID":"2022-052AP","FILE":"3669335","NORAD_CAT_ID":"52635","COUNTRY_CODE":"US","EPHEMERIS_TYPE":"0","OBJECT_NAME":"STARLINK-3978","ECCENTRICITY":"0.00029620","MEAN_MOTION_DDOT":"0.0000000000000","REF_FRAME":"TEME","RA_OF_ASC_NODE":"250.0569","CENTER_NAME":"EARTH","BSTAR":"0.00015124000000","RCS_SIZE":"LARGE","EPOCH":"2022-11-24T19:31:22.527552","GP_ID":"218725482","DECAY_DATE":null},{"ECCENTRICITY":"0.00021880","REF_FRAME":"TEME","MEAN_MOTION_DDOT":"0.0000000000000","EPHEMERIS_TYPE":"0","COUNTRY_CODE":"US","OBJECT_NAME":"STARLINK-3967","NORAD_CAT_ID":"52636","GP_ID":"218667167","DECAY_DATE":null,"EPOCH":"2022-11-24T07:24:03.878208","RA_OF_ASC_NODE":"262.3254","CENTER_NAME":"EARTH","BSTAR":"-0.00003844200000","RCS_SIZE":"LARGE","ARG_OF_PERICENTER":"39.0167","MEAN_ANOMALY":"321.0982","TIME_SYSTEM":"UTC","MEAN_ELEMENT_THEORY":"SGP4","ELEMENT_SET_NO":"999","TLE_LINE1":"1 52636U 22052AQ  22328.30837822 -.00000900  00000-0 -38442-4 0  9999","PERIAPSIS":"538.229","TLE_LINE2":"2 52636  53.2189 262.3254 0002188  39.0167 321.0982 15.08840878 29624","APOAPSIS":"541.256","SITE":"AFETR","INCLINATION":"53.2189","FILE":"3669022","OBJECT_TYPE":"PAYLOAD","MEAN_MOTION":"15.08840878","PERIOD":"95.437","OBJECT_ID":"2022-052AQ","LAUNCH_DATE":"2022-05-14","REV_AT_EPOCH":"2962","CLASSIFICATION_TYPE":"U","SEMIMAJOR_AXIS":"6917.878","MEAN_MOTION_DOT":"-0.00000900"},{"PERIAPSIS":"538.125","TLE_LINE2":"2 52637  53.2187 252.7542 0002361  41.7265 318.3907 15.08835894 30550","INCLINATION":"53.2187","APOAPSIS":"541.391","SITE":"AFETR","MEAN_ANOMALY":"318.3907","ARG_OF_PERICENTER":"41.7265","MEAN_ELEMENT_THEORY":"SGP4","TIME_SYSTEM":"UTC","TLE_LINE1":"1 52637U 22052AR  22328.21361941  .00000026  00000-0  19739-4 0  9999","ELEMENT_SET_NO":"999","SEMIMAJOR_AXIS":"6917.893","REV_AT_EPOCH":"3055","CLASSIFICATION_TYPE":"U","MEAN_MOTION_DOT":"0.00000026","FILE":"3669022","OBJECT_TYPE":"PAYLOAD","LAUNCH_DATE":"2022-05-14","OBJECT_ID":"2022-052AR","PERIOD":"95.438","MEAN_MOTION":"15.08835894","NORAD_CAT_ID":"52637","ECCENTRICITY":"0.00023610","REF_FRAME":"TEME","MEAN_MOTION_DDOT":"0.0000000000000","EPHEMERIS_TYPE":"0","COUNTRY_CODE":"US","OBJECT_NAME":"STARLINK-3961","EPOCH":"2022-11-24T05:07:36.717024","RA_OF_ASC_NODE":"252.7542","RCS_SIZE":"LARGE","BSTAR":"0.00001973900000","CENTER_NAME":"EARTH","GP_ID":"218667919","DECAY_DATE":null},{"PERIAPSIS":"538.221","TLE_LINE2":"2 52638  53.2198 262.6500 0002206  38.7028 321.4122 15.08839516 30423","SITE":"AFETR","APOAPSIS":"541.273","INCLINATION":"53.2198","ARG_OF_PERICENTER":"38.7028","MEAN_ANOMALY":"321.4122","TIME_SYSTEM":"UTC","MEAN_ELEMENT_THEORY":"SGP4","ELEMENT_SET_NO":"999","TLE_LINE1":"1 52638U 22052AS  22328.23845966 -.00000932  00000-0 -40446-4 0  9993","REV_AT_EPOCH":"3042","CLASSIFICATION_TYPE":"U","SEMIMAJOR_AXIS":"6917.882","MEAN_MOTION_DOT":"-0.00000932","FILE":"3669022","OBJECT_TYPE":"PAYLOAD","PERIOD":"95.438","MEAN_MOTION":"15.08839516","OBJECT_ID":"2022-052AS","LAUNCH_DATE":"2022-05-14","NORAD_CAT_ID":"52638","ECCENTRICITY":"0.00022060","MEAN_MOTION_DDOT":"0.0000000000000","REF_FRAME":"TEME","COUNTRY_CODE":"US","EPHEMERIS_TYPE":"0","OBJECT_NAME":"STARLINK-3941","EPOCH":"2022-11-24T05:43:22.914624","RA_OF_ASC_NODE":"262.6500","CENTER_NAME":"EARTH","BSTAR":"-0.00004044600000","RCS_SIZE":"LARGE","GP_ID":"218668170","DECAY_DATE":null},{"PERIAPSIS":"537.502","SITE":"AFETR","APOAPSIS":"541.969","INCLINATION":"53.2194","TLE_LINE2":"2 52639  53.2194 252.8039 0003229  28.9536 331.1635 15.08843170 30551","TIME_SYSTEM":"UTC","MEAN_ELEMENT_THEORY":"SGP4","ARG_OF_PERICENTER":"28.9536","MEAN_ANOMALY":"331.1635","ELEMENT_SET_NO":"999","TLE_LINE1":"1 52639U 22052AT  22328.20257369  .00000075  00000-0  22873-4 0  9995","REV_AT_EPOCH":"3055","CLASSIFICATION_TYPE":"U","SEMIMAJOR_AXIS":"6917.871","MEAN_MOTION_DOT":"0.00000075","FILE":"3669022","PERIOD":"95.437","MEAN_MOTION":"15.08843170","LAUNCH_DATE":"2022-05-14","OBJECT_ID":"2022-052AT","OBJECT_TYPE":"PAYLOAD","NORAD_CAT_ID":"52639","REF_FRAME":"TEME","MEAN_MOTION_DDOT":"0.0000000000000","ECCENTRICITY":"0.00032290","OBJECT_NAME":"STARLINK-3968","COUNTRY_CODE":"US","EPHEMERIS_TYPE":"0","EPOCH":"2022-11-24T04:51:42.366816","CENTER_NAME":"EARTH","RCS_SIZE":"LARGE","BSTAR":"0.00002287300000","RA_OF_ASC_NODE":"252.8039","DECAY_DATE":null,"GP_ID":"218668408"},{"NORAD_CAT_ID":"52640","OBJECT_NAME":"STARLINK-3977","COUNTRY_CODE":"US","EPHEMERIS_TYPE":"0","REF_FRAME":"TEME","MEAN_MOTION_DDOT":"0.0000000000000","ECCENTRICITY":"0.00024280","CENTER_NAME":"EARTH","BSTAR":"0.00008547400000","RCS_SIZE":"LARGE","RA_OF_ASC_NODE":"252.7264","EPOCH":"2022-11-24T05:14:17.699424","DECAY_DATE":null,"GP_ID":"218666668","APOAPSIS":"541.481","SITE":"AFETR","INCLINATION":"53.2170","TLE_LINE2":"2 52640  53.2170 252.7264 0002428  32.4563 327.6578 15.08821563 29743","PERIAPSIS":"538.122","ELEMENT_SET_NO":"999","TLE_LINE1":"1 52640U 22052AU  22328.21826041  .00001072  00000-0  85474-4 0  9991","TIME_SYSTEM":"UTC","MEAN_ELEMENT_THEORY":"SGP4","ARG_OF_PERICENTER":"32.4563","MEAN_ANOMALY":"327.6578","MEAN_MOTION_DOT":"0.00001072","CLASSIFICATION_TYPE":"U","REV_AT_EPOCH":"2974","SEMIMAJOR_AXIS":"6917.937","MEAN_MOTION":"15.08821563","PERIOD":"95.439","LAUNCH_DATE":"2022-05-14","OBJECT_ID":"2022-052AU","OBJECT_TYPE":"PAYLOAD","FILE":"3669022"},{"ECCENTRICITY":"0.00028730","MEAN_MOTION_DDOT":"0.0000000000000","REF_FRAME":"TEME","COUNTRY_CODE":"US","EPHEMERIS_TYPE":"0","OBJECT_NAME":"STARLINK-3991","NORAD_CAT_ID":"52641","GP_ID":"218636978","DECAY_DATE":null,"EPOCH":"2022-11-24T06:21:48.089088","RA_OF_ASC_NODE":"252.5230","BSTAR":"0.00007671600000","RCS_SIZE":"LARGE","CENTER_NAME":"EARTH","MEAN_ANOMALY":"331.7052","ARG_OF_PERICENTER":"28.4097","MEAN_ELEMENT_THEORY":"SGP4","TIME_SYSTEM":"UTC","TLE_LINE1":"1 52641U 22052AV  22328.26513992  .00000933  00000-0  76716-4 0  9999","ELEMENT_SET_NO":"999","PERIAPSIS":"537.734","TLE_LINE2":"2 52641  53.2176 252.5230 0002873  28.4097 331.7052 15.08847702 30133","INCLINATION":"53.2176","SITE":"AFETR","APOAPSIS":"541.709","FILE":"3668743","OBJECT_TYPE":"PAYLOAD","LAUNCH_DATE":"2022-05-14","OBJECT_ID":"2022-052AV","MEAN_MOTION":"15.08847702","PERIOD":"95.437","SEMIMAJOR_AXIS":"6917.857","CLASSIFICATION_TYPE":"U","REV_AT_EPOCH":"3013","MEAN_MOTION_DOT":"0.00000933"}];
